[{"OBJECT_NAME":"FLOCK 4G-25","OBJECT_ID":"2025-009AP","EPOCH":"2026-03-09T17:53:50.680608","MEAN_MOTION":15.27424196,"ECCENTRICITY":8.276e-5,"INCLINATION":97.4049,"RA_OF_ASC_NODE":151.4141,"ARG_OF_PERICENTER":316.3151,"MEAN_ANOMALY":43.8023,"EPHEMERIS_TYPE":0,"CLASSIFICATION_TYPE":"U","NORAD_CAT_ID":62646,"ELEMENT_SET_NO":999,"REV_AT_EPOCH":6373,"BSTAR":0.00038902475,"MEAN_MOTION_DOT":0.00010373,"MEAN_MOTION_DDOT":0},{"OBJECT_NAME":"STARLINK-33699","OBJECT_ID":"2025-057X","EPOCH":"2026-03-09T22:16:54.969600","MEAN_MOTION":15.27595076,"ECCENTRICITY":0.00011547,"INCLINATION":43.0037,"RA_OF_ASC_NODE":21.7339,"ARG_OF_PERICENTER":258.8037,"MEAN_ANOMALY":101.2685,"EPHEMERIS_TYPE":0,"CLASSIFICATION_TYPE":"U","NORAD_CAT_ID":63328,"ELEMENT_SET_NO":999,"REV_AT_EPOCH":5586,"BSTAR":0.001330796,"MEAN_MOTION_DOT":0.00036557,"MEAN_MOTION_DDOT":0}]
